LANDSAT 9               
1 49260U 21088A   24014.80231173  .00000887  00000+0  20699-3 0  9997
2 49260  98.2072  86.9031 0001102  88.4807 271.6518 14.57112344122217
